CCSDS_OMM_VERS = 2.0
CREATION_DATE  = 
ORIGINATOR     = 

OBJECT_NAME    = CZ-2C R/B
OBJECT_ID      = 2022-132E
CENTER_NAME    = EARTH
REF_FRAME      = TEME
TIME_SYSTEM    = UTC
MEAN_ELEMENT_THEORY = SGP/SGP4

EPOCH          = 2026-02-19T11:40:02.319744
MEAN_MOTION    = 15.60196667
ECCENTRICITY   = .0019931
INCLINATION    = 97.2959
RA_OF_ASC_NODE = 53.2755
ARG_OF_PERICENTER = 150.5977
MEAN_ANOMALY   = 209.6406

EPHEMERIS_TYPE = 0
CLASSIFICATION_TYPE = U
NORAD_CAT_ID   = 54039
ELEMENT_SET_NO = 999
REV_AT_EPOCH   = 18753
BSTAR          = .47014E-3
MEAN_MOTION_DOT = .38629E-3
MEAN_MOTION_DDOT = 0

CCSDS_OMM_VERS = 2.0
CREATION_DATE  = 
ORIGINATOR     = 

OBJECT_NAME    = GSLV R/B
OBJECT_ID      = 2022-138AN
CENTER_NAME    = EARTH
REF_FRAME      = TEME
TIME_SYSTEM    = UTC
MEAN_ELEMENT_THEORY = SGP/SGP4

EPOCH          = 2026-02-19T09:38:04.124832
MEAN_MOTION    = 14.96627442
ECCENTRICITY   = .0020353
INCLINATION    = 87.3879
RA_OF_ASC_NODE = 172.4815
ARG_OF_PERICENTER = 212.7150
MEAN_ANOMALY   = 147.2823

EPHEMERIS_TYPE = 0
CLASSIFICATION_TYPE = U
NORAD_CAT_ID   = 54149
ELEMENT_SET_NO = 999
REV_AT_EPOCH   = 18119
BSTAR          = .31012E-3
MEAN_MOTION_DOT = .3575E-4
MEAN_MOTION_DDOT = 0

CCSDS_OMM_VERS = 2.0
CREATION_DATE  = 
ORIGINATOR     = 

OBJECT_NAME    = XRISM
OBJECT_ID      = 2023-137A
CENTER_NAME    = EARTH
REF_FRAME      = TEME
TIME_SYSTEM    = UTC
MEAN_ELEMENT_THEORY = SGP/SGP4

EPOCH          = 2026-02-19T08:19:24.377952
MEAN_MOTION    = 15.11260329
ECCENTRICITY   = .0008309
INCLINATION    = 31.0030
RA_OF_ASC_NODE = 42.2797
ARG_OF_PERICENTER = 216.4510
MEAN_ANOMALY   = 143.5563

EPHEMERIS_TYPE = 0
CLASSIFICATION_TYPE = U
NORAD_CAT_ID   = 57800
ELEMENT_SET_NO = 999
REV_AT_EPOCH   = 13501
BSTAR          = .28918E-3
MEAN_MOTION_DOT = .5086E-4
MEAN_MOTION_DDOT = 0

CCSDS_OMM_VERS = 2.0
CREATION_DATE  = 
ORIGINATOR     = 

OBJECT_NAME    = ACS3
OBJECT_ID      = 2024-077B
CENTER_NAME    = EARTH
REF_FRAME      = TEME
TIME_SYSTEM    = UTC
MEAN_ELEMENT_THEORY = SGP/SGP4

EPOCH          = 2026-02-19T10:03:42.731712
MEAN_MOTION    = 13.88799682
ECCENTRICITY   = .0048818
INCLINATION    = 97.2173
RA_OF_ASC_NODE = 355.6395
ARG_OF_PERICENTER = 129.8178
MEAN_ANOMALY   = 230.7297

EPHEMERIS_TYPE = 0
CLASSIFICATION_TYPE = U
NORAD_CAT_ID   = 59588
ELEMENT_SET_NO = 999
REV_AT_EPOCH   = 9166
BSTAR          = .1432E-1
MEAN_MOTION_DOT = .17463E-3
MEAN_MOTION_DDOT = 0

CCSDS_OMM_VERS = 2.0
CREATION_DATE  = 
ORIGINATOR     = 

OBJECT_NAME    = SZ-21 MODULE
OBJECT_ID      = 2025-246C
CENTER_NAME    = EARTH
REF_FRAME      = TEME
TIME_SYSTEM    = UTC
MEAN_ELEMENT_THEORY = SGP/SGP4

EPOCH          = 2026-02-19T02:10:29.836704
MEAN_MOTION    = 15.67079513
ECCENTRICITY   = .0001783
INCLINATION    = 41.4761
RA_OF_ASC_NODE = 317.7232
ARG_OF_PERICENTER = 298.3543
MEAN_ANOMALY   = 61.7118

EPHEMERIS_TYPE = 0
CLASSIFICATION_TYPE = U
NORAD_CAT_ID   = 66515
ELEMENT_SET_NO = 999
REV_AT_EPOCH   = 1515
BSTAR          = .27525603E-3
MEAN_MOTION_DOT = .30016E-3
MEAN_MOTION_DDOT = 0

